[{"OBJECT_NAME":"HUYGENS","OBJECT_ID":"2023-001CN","EPOCH":"2026-03-09T22:29:59.612064","MEAN_MOTION":15.38188083,"ECCENTRICITY":0.00114239,"INCLINATION":97.3353,"RA_OF_ASC_NODE":136.098,"ARG_OF_PERICENTER":84.7178,"MEAN_ANOMALY":275.537,"EPHEMERIS_TYPE":0,"CLASSIFICATION_TYPE":"U","NORAD_CAT_ID":55093,"ELEMENT_SET_NO":999,"REV_AT_EPOCH":17710,"BSTAR":0.00030435197,"MEAN_MOTION_DOT":0.00011392,"MEAN_MOTION_DDOT":0},{"OBJECT_NAME":"STARLINK-5525","OBJECT_ID":"2023-094A","EPOCH":"2026-03-09T22:00:01.999584","MEAN_MOTION":15.1907156,"ECCENTRICITY":0.00012507,"INCLINATION":43.0019,"RA_OF_ASC_NODE":28.7896,"ARG_OF_PERICENTER":233.0657,"MEAN_ANOMALY":277.2723,"EPHEMERIS_TYPE":0,"CLASSIFICATION_TYPE":"U","NORAD_CAT_ID":57218,"ELEMENT_SET_NO":999,"REV_AT_EPOCH":567,"BSTAR":0.056169201,"MEAN_MOTION_DOT":0.01299999,"MEAN_MOTION_DDOT":0}]
